*******************************************************************************
Ephemeris / WWW_USER Fri Mar  7 09:50:22 2025 Pasadena, USA      / Horizons    
*******************************************************************************
Target body name: Triton (801)                    {source: nep097_merged}
Center body name: Earth (399)                     {source: nep097_merged}
Center-site name: Mauna Kea
*******************************************************************************
Start time      : A.D. 2019-Jan-27 04:20:00.0000 UT      
Stop  time      : A.D. 2019-Jan-27 16:48:00.0000 UT      
Step-size       : 1 minutes
*******************************************************************************
Target pole/equ : IAU_TRITON                      {East-longitude positive}
Target radii    : 1352.6, 1352.6, 1352.6 km       {Equator_a, b, pole_c}       
Center geodetic : 204.5278, 19.8260847, 4.21024   {E-lon(deg),Lat(deg),Alt(km)}
Center cylindric: 204.5278, 6006.35451, 2151.0229 {E-lon(deg),Dxy(km),Dz(km)}
Center pole/equ : ITRF93                          {East-longitude positive}
Center radii    : 6378.137, 6378.137, 6356.752 km {Equator_a, b, pole_c}       
Target primary  : Neptune
Vis. interferer : MOON (R_eq= 1737.400) km        {source: DE441}
Rel. light bend : Sun                             {source: nep097_merged}
Rel. lght bnd GM: 1.3271E+11 km^3/s^2                                          
Atmos refraction: NO (AIRLESS)
RA format       : HMS
Time format     : CAL 
Calendar mode   : Mixed Julian/Gregorian
RTS-only print  : NO       
EOP file        : eop.250306.p250602                                           
EOP coverage    : DATA-BASED 1962-JAN-20 TO 2025-MAR-06. PREDICTS-> 2025-JUN-01
Units conversion: 1 au= 149597870.700 km, c= 299792.458 km/s, 1 day= 86400.0 s 
Table cut-offs 1: Elevation (-90.0deg=NO ),Airmass (>38.000=NO), Daylight (YES)
Table cut-offs 2: Solar elongation (  0.0,180.0=NO ),Local Hour Angle( 0.0=NO )
Table cut-offs 3: RA/DEC angular rate (     0.0=NO )                           
*******************************************************************************
 Date__(UT)__HR:MN     R.A._________(ICRF)_________DEC
******************************************************
$$SOE
 2019-Jan-27 13:40  m  23 04 30.010676 -06 58 46.46260
 2019-Jan-27 13:41  m  23 04 30.015506 -06 58 46.44216
 2019-Jan-27 13:42  m  23 04 30.020335 -06 58 46.42173
 2019-Jan-27 13:43  m  23 04 30.025164 -06 58 46.40130
 2019-Jan-27 13:44  m  23 04 30.029993 -06 58 46.38087
 2019-Jan-27 13:45  m  23 04 30.034821 -06 58 46.36045
 2019-Jan-27 13:46  m  23 04 30.039648 -06 58 46.34002
 2019-Jan-27 13:47  m  23 04 30.044476 -06 58 46.31960
 2019-Jan-27 13:48  m  23 04 30.049302 -06 58 46.29918
 2019-Jan-27 13:49  m  23 04 30.054128 -06 58 46.27876
 2019-Jan-27 13:50  m  23 04 30.058954 -06 58 46.25835
 2019-Jan-27 13:51  m  23 04 30.063779 -06 58 46.23793
 2019-Jan-27 13:52  m  23 04 30.068604 -06 58 46.21752
 2019-Jan-27 13:53  m  23 04 30.073428 -06 58 46.19711
 2019-Jan-27 13:54  m  23 04 30.078252 -06 58 46.17670
 2019-Jan-27 13:55  m  23 04 30.083075 -06 58 46.15629
 2019-Jan-27 13:56  m  23 04 30.087898 -06 58 46.13589
 2019-Jan-27 13:57  m  23 04 30.092720 -06 58 46.11548
 2019-Jan-27 13:58  m  23 04 30.097542 -06 58 46.09508
 2019-Jan-27 13:59  m  23 04 30.102363 -06 58 46.07468
 2019-Jan-27 14:00  m  23 04 30.107184 -06 58 46.05428
 2019-Jan-27 14:01  m  23 04 30.112004 -06 58 46.03389
 2019-Jan-27 14:02  m  23 04 30.116824 -06 58 46.01349
 2019-Jan-27 14:03  m  23 04 30.121644 -06 58 45.99310
 2019-Jan-27 14:04  m  23 04 30.126463 -06 58 45.97271
 2019-Jan-27 14:05  m  23 04 30.131281 -06 58 45.95232
 2019-Jan-27 14:06  m  23 04 30.136099 -06 58 45.93193
 2019-Jan-27 14:07  m  23 04 30.140916 -06 58 45.91155
 2019-Jan-27 14:08  m  23 04 30.145733 -06 58 45.89116
 2019-Jan-27 14:09  m  23 04 30.150549 -06 58 45.87078
 2019-Jan-27 14:10  m  23 04 30.155365 -06 58 45.85040
 2019-Jan-27 14:11  m  23 04 30.160181 -06 58 45.83002
 2019-Jan-27 14:12  m  23 04 30.164995 -06 58 45.80965
 2019-Jan-27 14:13  m  23 04 30.169810 -06 58 45.78927
 2019-Jan-27 14:14  m  23 04 30.174624 -06 58 45.76890
 2019-Jan-27 14:15  m  23 04 30.179437 -06 58 45.74853
 2019-Jan-27 14:16  m  23 04 30.184250 -06 58 45.72816
 2019-Jan-27 14:17  m  23 04 30.189062 -06 58 45.70779
 2019-Jan-27 14:18  m  23 04 30.193874 -06 58 45.68742
 2019-Jan-27 14:19  m  23 04 30.198685 -06 58 45.66706
 2019-Jan-27 14:20  m  23 04 30.203496 -06 58 45.64670
 2019-Jan-27 14:21  m  23 04 30.208306 -06 58 45.62633
 2019-Jan-27 14:22  m  23 04 30.213116 -06 58 45.60598
 2019-Jan-27 14:23  m  23 04 30.217925 -06 58 45.58562
 2019-Jan-27 14:24  m  23 04 30.222733 -06 58 45.56526
 2019-Jan-27 14:25  m  23 04 30.227542 -06 58 45.54491
 2019-Jan-27 14:26  m  23 04 30.232349 -06 58 45.52455
 2019-Jan-27 14:27  m  23 04 30.237156 -06 58 45.50420
 2019-Jan-27 14:28  m  23 04 30.241963 -06 58 45.48385
 2019-Jan-27 14:29  m  23 04 30.246769 -06 58 45.46351
 2019-Jan-27 14:30  m  23 04 30.251574 -06 58 45.44316
 2019-Jan-27 14:31  m  23 04 30.256379 -06 58 45.42281
 2019-Jan-27 14:32  m  23 04 30.261184 -06 58 45.40247
 2019-Jan-27 14:33  m  23 04 30.265988 -06 58 45.38213
 2019-Jan-27 14:34  m  23 04 30.270791 -06 58 45.36179
 2019-Jan-27 14:35  m  23 04 30.275594 -06 58 45.34145
 2019-Jan-27 14:36  m  23 04 30.280396 -06 58 45.32111
 2019-Jan-27 14:37  m  23 04 30.285198 -06 58 45.30078
 2019-Jan-27 14:38  m  23 04 30.289999 -06 58 45.28045
 2019-Jan-27 14:39  m  23 04 30.294800 -06 58 45.26011
 2019-Jan-27 14:40  m  23 04 30.299600 -06 58 45.23978
 2019-Jan-27 14:41  m  23 04 30.304399 -06 58 45.21945
 2019-Jan-27 14:42  m  23 04 30.309198 -06 58 45.19913
 2019-Jan-27 14:43  m  23 04 30.313997 -06 58 45.17880
 2019-Jan-27 14:44  m  23 04 30.318795 -06 58 45.15848
 2019-Jan-27 14:45  m  23 04 30.323592 -06 58 45.13815
 2019-Jan-27 14:46  m  23 04 30.328389 -06 58 45.11783
 2019-Jan-27 14:47  m  23 04 30.333185 -06 58 45.09751
 2019-Jan-27 14:48  m  23 04 30.337981 -06 58 45.07719
 2019-Jan-27 14:49  m  23 04 30.342776 -06 58 45.05688
 2019-Jan-27 14:50  m  23 04 30.347571 -06 58 45.03656
 2019-Jan-27 14:51  m  23 04 30.352365 -06 58 45.01625
 2019-Jan-27 14:52  m  23 04 30.357158 -06 58 44.99594
 2019-Jan-27 14:53  m  23 04 30.361951 -06 58 44.97563
 2019-Jan-27 14:54  m  23 04 30.366743 -06 58 44.95532
 2019-Jan-27 14:55  m  23 04 30.371535 -06 58 44.93501
 2019-Jan-27 14:56  m  23 04 30.376326 -06 58 44.91470
 2019-Jan-27 14:57  m  23 04 30.381117 -06 58 44.89440
 2019-Jan-27 14:58  m  23 04 30.385907 -06 58 44.87409
 2019-Jan-27 14:59  m  23 04 30.390697 -06 58 44.85379
 2019-Jan-27 15:00  m  23 04 30.395486 -06 58 44.83349
 2019-Jan-27 15:01  m  23 04 30.400274 -06 58 44.81319
 2019-Jan-27 15:02  m  23 04 30.405062 -06 58 44.79289
 2019-Jan-27 15:03  m  23 04 30.409849 -06 58 44.77260
 2019-Jan-27 15:04  m  23 04 30.414636 -06 58 44.75230
 2019-Jan-27 15:05  m  23 04 30.419422 -06 58 44.73201
 2019-Jan-27 15:06  m  23 04 30.424207 -06 58 44.71171
 2019-Jan-27 15:07  m  23 04 30.428992 -06 58 44.69142
 2019-Jan-27 15:08  m  23 04 30.433777 -06 58 44.67113
 2019-Jan-27 15:09  m  23 04 30.438560 -06 58 44.65085
 2019-Jan-27 15:10  m  23 04 30.443344 -06 58 44.63056
 2019-Jan-27 15:11  m  23 04 30.448126 -06 58 44.61027
 2019-Jan-27 15:12  m  23 04 30.452908 -06 58 44.58999
 2019-Jan-27 15:13  m  23 04 30.457690 -06 58 44.56970
 2019-Jan-27 15:14  m  23 04 30.462471 -06 58 44.54942
 2019-Jan-27 15:15  m  23 04 30.467251 -06 58 44.52914
 2019-Jan-27 15:16  m  23 04 30.472031 -06 58 44.50886
 2019-Jan-27 15:17  m  23 04 30.476810 -06 58 44.48859
 2019-Jan-27 15:18  m  23 04 30.481588 -06 58 44.46831
 2019-Jan-27 15:19  m  23 04 30.486366 -06 58 44.44803
 2019-Jan-27 15:20  m  23 04 30.491143 -06 58 44.42776
 2019-Jan-27 15:21  m  23 04 30.495920 -06 58 44.40749
 2019-Jan-27 15:22  m  23 04 30.500696 -06 58 44.38722
 2019-Jan-27 15:23  m  23 04 30.505472 -06 58 44.36694
 2019-Jan-27 15:24  m  23 04 30.510247 -06 58 44.34668
 2019-Jan-27 15:25  m  23 04 30.515021 -06 58 44.32641
 2019-Jan-27 15:26  m  23 04 30.519795 -06 58 44.30614
 2019-Jan-27 15:27  m  23 04 30.524568 -06 58 44.28588
 2019-Jan-27 15:28  m  23 04 30.529341 -06 58 44.26561
 2019-Jan-27 15:29  m  23 04 30.534113 -06 58 44.24535
 2019-Jan-27 15:30  m  23 04 30.538884 -06 58 44.22509
 2019-Jan-27 15:31  m  23 04 30.543655 -06 58 44.20483
 2019-Jan-27 15:32  m  23 04 30.548425 -06 58 44.18457
 2019-Jan-27 15:33  m  23 04 30.553194 -06 58 44.16431
 2019-Jan-27 15:34  m  23 04 30.557963 -06 58 44.14405
 2019-Jan-27 15:35  m  23 04 30.562731 -06 58 44.12380
 2019-Jan-27 15:36  m  23 04 30.567499 -06 58 44.10354
 2019-Jan-27 15:37  m  23 04 30.572266 -06 58 44.08329
 2019-Jan-27 15:38  m  23 04 30.577033 -06 58 44.06304
 2019-Jan-27 15:39  m  23 04 30.581798 -06 58 44.04278
 2019-Jan-27 15:40  m  23 04 30.586564 -06 58 44.02253
 2019-Jan-27 15:41  m  23 04 30.591328 -06 58 44.00228
 2019-Jan-27 15:42  m  23 04 30.596092 -06 58 43.98204
 2019-Jan-27 15:43 Am  23 04 30.600856 -06 58 43.96179
 2019-Jan-27 15:44 Am  23 04 30.605618 -06 58 43.94154
 2019-Jan-27 15:45 Am  23 04 30.610381 -06 58 43.92130
 2019-Jan-27 15:46 Am  23 04 30.615142 -06 58 43.90106
 2019-Jan-27 15:47 Am  23 04 30.619903 -06 58 43.88081
 2019-Jan-27 15:48 Am  23 04 30.624663 -06 58 43.86057
 2019-Jan-27 15:49 Am  23 04 30.629423 -06 58 43.84033
 2019-Jan-27 15:50 Am  23 04 30.634182 -06 58 43.82009
 2019-Jan-27 15:51 Am  23 04 30.638940 -06 58 43.79985
 2019-Jan-27 15:52 Am  23 04 30.643698 -06 58 43.77962
 2019-Jan-27 15:53 Am  23 04 30.648455 -06 58 43.75938
 2019-Jan-27 15:54 Am  23 04 30.653212 -06 58 43.73914
 2019-Jan-27 15:55 Am  23 04 30.657968 -06 58 43.71891
 2019-Jan-27 15:56 Am  23 04 30.662723 -06 58 43.69868
 2019-Jan-27 15:57 Am  23 04 30.667477 -06 58 43.67844
 2019-Jan-27 15:58 Am  23 04 30.672231 -06 58 43.65821
 2019-Jan-27 15:59 Am  23 04 30.676985 -06 58 43.63798
